[{"OBJECT_NAME":"STARLINK-4406","OBJECT_ID":"2022-105V","EPOCH":"2026-03-09T16:11:57.725088","MEAN_MOTION":15.05688645,"ECCENTRICITY":0.00032736,"INCLINATION":97.5995,"RA_OF_ASC_NODE":311.2806,"ARG_OF_PERICENTER":72.4901,"MEAN_ANOMALY":287.6683,"EPHEMERIS_TYPE":0,"CLASSIFICATION_TYPE":"U","NORAD_CAT_ID":53667,"ELEMENT_SET_NO":999,"REV_AT_EPOCH":19330,"BSTAR":0.00038130822,"MEAN_MOTION_DOT":5.451e-5,"MEAN_MOTION_DDOT":0},{"OBJECT_NAME":"CZ-6A DEB","OBJECT_ID":"2022-151CX","EPOCH":"2026-03-09T21:16:17.872608","MEAN_MOTION":15.11183333,"ECCENTRICITY":0.00647114,"INCLINATION":99.0278,"RA_OF_ASC_NODE":217.0514,"ARG_OF_PERICENTER":197.6419,"MEAN_ANOMALY":162.256,"EPHEMERIS_TYPE":0,"CLASSIFICATION_TYPE":"U","NORAD_CAT_ID":54352,"ELEMENT_SET_NO":999,"REV_AT_EPOCH":10537,"BSTAR":0.0059033487,"MEAN_MOTION_DOT":0.00105485,"MEAN_MOTION_DDOT":0}]
